KUIPER-00008            
1 63724U 25088A   26027.38010635  .00009893  00000+0  82270-3 0  9998
2 63724  51.8898 275.2783 0007605 322.7288  37.3154 14.99232561 41861
KUIPER-00009            
1 63725U 25088B   26027.45468397  .00008576  00000+0  11491-2 0  9992
2 63725  51.9024 288.9716 0009836 326.8044  33.2300 14.80035818 41677
KUIPER-00010            
1 63726U 25088C   26026.63653237  .00004449  00000+0  61251-3 0  9996
2 63726  51.8989 269.0477 0000379  75.5088 284.5916 14.79909586 41506
KUIPER-00011            
1 63727U 25088D   26026.72956256  .00005218  00000+0  71193-3 0  9995
2 63727  51.9022 276.2046 0008969 342.0477  18.0168 14.79980584 41545
KUIPER-00012            
1 63728U 25088E   26027.33795874 -.00004118  00000+0 -55118-3 0  9990
2 63728  51.9009 257.9250 0008414 353.8409   6.2447 14.76789359 41806
KUIPER-00013            
1 63729U 25088F   26027.38614723  .00004356  00000+0  60160-3 0  9994
2 63729  51.9054 290.7382 0003629 269.0893  90.9654 14.79827498 41457
KUIPER-00014            
1 63730U 25088G   26026.77498210  .00006942  00000+0  93357-3 0  9996
2 63730  51.9015 294.3926 0004782 338.6362  21.4400 14.80164842 41160
KUIPER-00015            
1 63731U 25088H   26026.47898965  .00009330  00000+0  11785-2 0  9993
2 63731  51.9005 305.9974 0009044 297.0057  62.9982 14.82432873 41436
